{
 "generated_at": "2026-06-29T09:26:28Z",
 "sources": [
  {
   "name": "CelesTrak",
   "url": "https://celestrak.org/NORAD/elements/",
   "license": "frei verfügbar; Attribution. Ursprünglich USSPACECOM/Space-Track."
  },
  {
   "name": "GCAT (J. McDowell, planet4589.org)",
   "url": "https://planet4589.org/space/gcat/",
   "license": "CC-BY 4.0"
  }
 ],
 "satellites": [
  {
   "norad": 29228,
   "name": "RESURS-DK 1",
   "intl": "2006-021A",
   "group": "resource",
   "gcat": {
    "class": null,
    "category": null,
    "owner": null,
    "state": null
   },
   "omm": {
    "OBJECT_NAME": "RESURS-DK 1",
    "OBJECT_ID": "2006-021A",
    "EPOCH": "2026-06-28T19:14:16.137024",
    "MEAN_MOTION": 15.13263406,
    "ECCENTRICITY": 0.00067174,
    "INCLINATION": 69.9339,
    "RA_OF_ASC_NODE": 309.4882,
    "ARG_OF_PERICENTER": 286.1035,
    "MEAN_ANOMALY": 73.9391,
    "EPHEMERIS_TYPE": 0,
    "CLASSIFICATION_TYPE": "U",
    "NORAD_CAT_ID": 29228,
    "ELEMENT_SET_NO": 999,
    "REV_AT_EPOCH": 10433,
    "BSTAR": 0.00012230542,
    "MEAN_MOTION_DOT": 0.00002072,
    "MEAN_MOTION_DDOT": 0
   }
  },
  {
   "norad": 59371,
   "name": "RESURS-P 4",
   "intl": "2024-061A",
   "group": "resource",
   "gcat": {
    "class": "C",
    "category": "IMG",
    "owner": "TSSKBP?",
    "state": "RU"
   },
   "omm": {
    "OBJECT_NAME": "RESURS-P 4",
    "OBJECT_ID": "2024-061A",
    "EPOCH": "2026-06-28T22:53:09.146976",
    "MEAN_MOTION": 15.32195908,
    "ECCENTRICITY": 0.00028589,
    "INCLINATION": 97.2754,
    "RA_OF_ASC_NODE": 127.6478,
    "ARG_OF_PERICENTER": 112.8809,
    "MEAN_ANOMALY": 247.2735,
    "EPHEMERIS_TYPE": 0,
    "CLASSIFICATION_TYPE": "U",
    "NORAD_CAT_ID": 59371,
    "ELEMENT_SET_NO": 999,
    "REV_AT_EPOCH": 12556,
    "BSTAR": 0.000097873241,
    "MEAN_MOTION_DOT": 0.00002966,
    "MEAN_MOTION_DDOT": 0
   }
  },
  {
   "norad": 44233,
   "name": "RISAT-2B",
   "intl": "2019-028A",
   "group": "sar",
   "gcat": {
    "class": "C",
    "category": "IMG-R",
    "owner": "ISRO",
    "state": "IN"
   },
   "omm": {
    "OBJECT_NAME": "RISAT-2B",
    "OBJECT_ID": "2019-028A",
    "EPOCH": "2026-06-28T23:41:51.622656",
    "MEAN_MOTION": 15.01726302,
    "ECCENTRICITY": 0.00039978,
    "INCLINATION": 36.9977,
    "RA_OF_ASC_NODE": 284.103,
    "ARG_OF_PERICENTER": 143.5102,
    "MEAN_ANOMALY": 216.5914,
    "EPHEMERIS_TYPE": 0,
    "CLASSIFICATION_TYPE": "U",
    "NORAD_CAT_ID": 44233,
    "ELEMENT_SET_NO": 999,
    "REV_AT_EPOCH": 38960,
    "BSTAR": 0.00023175636,
    "MEAN_MOTION_DOT": 0.00002994,
    "MEAN_MOTION_DDOT": 0
   }
  },
  {
   "norad": 44857,
   "name": "RISAT-2BR1",
   "intl": "2019-089F",
   "group": "sar",
   "gcat": {
    "class": "C",
    "category": "IMG-R",
    "owner": "ISRO",
    "state": "IN"
   },
   "omm": {
    "OBJECT_NAME": "RISAT-2BR1",
    "OBJECT_ID": "2019-089F",
    "EPOCH": "2026-06-28T23:44:39.244704",
    "MEAN_MOTION": 15.01719846,
    "ECCENTRICITY": 0.00132924,
    "INCLINATION": 36.9614,
    "RA_OF_ASC_NODE": 41.58,
    "ARG_OF_PERICENTER": 270.0204,
    "MEAN_ANOMALY": 89.9015,
    "EPHEMERIS_TYPE": 0,
    "CLASSIFICATION_TYPE": "U",
    "NORAD_CAT_ID": 44857,
    "ELEMENT_SET_NO": 999,
    "REV_AT_EPOCH": 35897,
    "BSTAR": 0.0002357528,
    "MEAN_MOTION_DOT": 0.00003052,
    "MEAN_MOTION_DDOT": 0
   }
  },
  {
   "norad": 46905,
   "name": "RISAT-2BR2",
   "intl": "2020-081A",
   "group": "sar",
   "gcat": {
    "class": "C",
    "category": "IMG-R",
    "owner": "ISRO",
    "state": "IN"
   },
   "omm": {
    "OBJECT_NAME": "RISAT-2BR2",
    "OBJECT_ID": "2020-081A",
    "EPOCH": "2026-06-28T23:37:44.196384",
    "MEAN_MOTION": 15.01670877,
    "ECCENTRICITY": 0.00123441,
    "INCLINATION": 36.8967,
    "RA_OF_ASC_NODE": 154.2148,
    "ARG_OF_PERICENTER": 258.2152,
    "MEAN_ANOMALY": 101.7204,
    "EPHEMERIS_TYPE": 0,
    "CLASSIFICATION_TYPE": "U",
    "NORAD_CAT_ID": 46905,
    "ELEMENT_SET_NO": 999,
    "REV_AT_EPOCH": 30924,
    "BSTAR": 0.00017745642,
    "MEAN_MOTION_DOT": 0.00002275,
    "MEAN_MOTION_DDOT": 0
   }
  },
  {
   "norad": 43641,
   "name": "SAOCOM 1A",
   "intl": "2018-076A",
   "group": "sar",
   "gcat": {
    "class": "C",
    "category": "IMG-R",
    "owner": "CONAE",
    "state": "AR"
   },
   "omm": {
    "OBJECT_NAME": "SAOCOM 1A",
    "OBJECT_ID": "2018-076A",
    "EPOCH": "2026-06-28T22:48:34.529760",
    "MEAN_MOTION": 14.8215918,
    "ECCENTRICITY": 0.00015963,
    "INCLINATION": 97.8881,
    "RA_OF_ASC_NODE": 6.5279,
    "ARG_OF_PERICENTER": 82.1064,
    "MEAN_ANOMALY": 278.033,
    "EPHEMERIS_TYPE": 0,
    "CLASSIFICATION_TYPE": "U",
    "NORAD_CAT_ID": 43641,
    "ELEMENT_SET_NO": 999,
    "REV_AT_EPOCH": 41784,
    "BSTAR": 0.00014243451,
    "MEAN_MOTION_DOT": 0.00001082,
    "MEAN_MOTION_DDOT": 0
   }
  },
  {
   "norad": 46265,
   "name": "SAOCOM 1B",
   "intl": "2020-059A",
   "group": "sar",
   "gcat": {
    "class": "C",
    "category": "IMG-R",
    "owner": "CONAE",
    "state": "AR"
   },
   "omm": {
    "OBJECT_NAME": "SAOCOM 1B",
    "OBJECT_ID": "2020-059A",
    "EPOCH": "2026-06-28T23:33:29.013120",
    "MEAN_MOTION": 14.82146679,
    "ECCENTRICITY": 0.00015803,
    "INCLINATION": 97.8883,
    "RA_OF_ASC_NODE": 5.6543,
    "ARG_OF_PERICENTER": 80.7365,
    "MEAN_ANOMALY": 279.4027,
    "EPHEMERIS_TYPE": 0,
    "CLASSIFICATION_TYPE": "U",
    "NORAD_CAT_ID": 46265,
    "ELEMENT_SET_NO": 999,
    "REV_AT_EPOCH": 31523,
    "BSTAR": 0.000018204146,
    "MEAN_MOTION_DOT": 9.3e-7,
    "MEAN_MOTION_DDOT": 0
   }
  },
  {
   "norad": 31797,
   "name": "SAR-LUPE 2",
   "intl": "2007-030A",
   "group": "sar",
   "gcat": {
    "class": "D",
    "category": "IMG-R",
    "owner": "BWB",
    "state": "D"
   },
   "omm": {
    "OBJECT_NAME": "SAR-LUPE 2",
    "OBJECT_ID": "2007-030A",
    "EPOCH": "2026-06-28T23:02:14.476128",
    "MEAN_MOTION": 15.51701614,
    "ECCENTRICITY": 0.00026345,
    "INCLINATION": 98.1057,
    "RA_OF_ASC_NODE": 285.8664,
    "ARG_OF_PERICENTER": 177.4058,
    "MEAN_ANOMALY": 182.7206,
    "EPHEMERIS_TYPE": 0,
    "CLASSIFICATION_TYPE": "U",
    "NORAD_CAT_ID": 31797,
    "ELEMENT_SET_NO": 999,
    "REV_AT_EPOCH": 5876,
    "BSTAR": 0.00021798486,
    "MEAN_MOTION_DOT": 0.00012868,
    "MEAN_MOTION_DDOT": 0
   }
  },
  {
   "norad": 39086,
   "name": "SARAL",
   "intl": "2013-009A",
   "group": "resource",
   "gcat": {
    "class": "C",
    "category": "SCI",
    "owner": "ISRO/CNES",
    "state": "IN"
   },
   "omm": {
    "OBJECT_NAME": "SARAL",
    "OBJECT_ID": "2013-009A",
    "EPOCH": "2026-06-28T21:53:27.086784",
    "MEAN_MOTION": 14.3285863,
    "ECCENTRICITY": 0.00008,
    "INCLINATION": 98.5557,
    "RA_OF_ASC_NODE": 6.3308,
    "ARG_OF_PERICENTER": 218.2301,
    "MEAN_ANOMALY": 141.8826,
    "EPHEMERIS_TYPE": 0,
    "CLASSIFICATION_TYPE": "U",
    "NORAD_CAT_ID": 39086,
    "ELEMENT_SET_NO": 999,
    "REV_AT_EPOCH": 69728,
    "BSTAR": 0.000041320144,
    "MEAN_MOTION_DOT": 6.9e-7,
    "MEAN_MOTION_DDOT": 0
   }
  },
  {
   "norad": 43831,
   "name": "SAUDISAT 5A",
   "intl": "2018-102A",
   "group": "resource",
   "gcat": {
    "class": "C",
    "category": "TECH",
    "owner": "KACST",
    "state": "SA"
   },
   "omm": {
    "OBJECT_NAME": "SAUDISAT 5A",
    "OBJECT_ID": "2018-102A",
    "EPOCH": "2026-06-28T22:50:30.737760",
    "MEAN_MOTION": 15.28166469,
    "ECCENTRICITY": 0.00112862,
    "INCLINATION": 97.3067,
    "RA_OF_ASC_NODE": 241.3062,
    "ARG_OF_PERICENTER": 93.5224,
    "MEAN_ANOMALY": 266.7307,
    "EPHEMERIS_TYPE": 0,
    "CLASSIFICATION_TYPE": "U",
    "NORAD_CAT_ID": 43831,
    "ELEMENT_SET_NO": 999,
    "REV_AT_EPOCH": 41747,
    "BSTAR": 0.00018788809,
    "MEAN_MOTION_DOT": 0.00005093,
    "MEAN_MOTION_DDOT": 0
   }
  }
 ]
}
