RESURS-DK 1             
1 29228U 06021A   26179.80157566  .00002072  00000+0  12231-3 0  9997
2 29228  69.9339 309.4882 0006717 286.1035  73.9391 15.13263406104338
SAR-LUPE 2              
1 31797U 07030A   26179.95988977  .00012868  00000+0  21798-3 0  9998
2 31797  98.1057 285.8664 0002634 177.4058 182.7206 15.51701614 58768
SARAL                   
1 39086U 13009A   26179.91211906  .00000069  00000+0  41320-4 0  9991
2 39086  98.5557   6.3308 0000800 218.2301 141.8826 14.32858630697284
SAOCOM 1A               
1 43641U 18076A   26179.95039965  .00001082  00000+0  14243-3 0  9998
2 43641  97.8881   6.5279 0001596  82.1064 278.0330 14.82159180417848
SAUDISAT 5A             
1 43831U 18102A   26179.95174465  .00005093  00000+0  18789-3 0  9999
2 43831  97.3067 241.3062 0011286  93.5224 266.7307 15.28166469417476
RISAT-2B                
1 44233U 19028A   26179.98740304  .00002994  00000+0  23176-3 0  9991
2 44233  36.9977 284.1030 0003997 143.5102 216.5914 15.01726302389602
RISAT-2BR1              
1 44857U 19089F   26179.98934311  .00003052  00000+0  23575-3 0  9992
2 44857  36.9614  41.5800 0013292 270.0204  89.9015 15.01719846358975
SAOCOM 1B               
1 46265U 20059A   26179.98158580  .00000093  00000+0  18204-4 0  9998
2 46265  97.8883   5.6543 0001580  80.7365 279.4027 14.82146679315237
RISAT-2BR2              
1 46905U 20081A   26179.98453931  .00002275  00000+0  17746-3 0  9995
2 46905  36.8967 154.2148 0012344 258.2152 101.7204 15.01670877309244
RESURS-P 4              
1 59371U 24061A   26179.95357809  .00002966  00000+0  97873-4 0  9999
2 59371  97.2754 127.6478 0002858 112.8809 247.2735 15.32195908125560
